STARLINK-34276          
1 64263U 25120H   25259.27091739  .00022760  00000+0  77862-3 0  9991
2 64263  53.1582 206.7262 0001526 100.5007 259.6166 15.30183566 17213
STARLINK-34333          
1 64264U 25120J   25259.58337963  .00003129  00000+0  11774-3 0  9996
2 64264  53.1605 205.1268 0001742 109.9636 247.9207 15.30202295  5900
STARLINK-34240          
1 64265U 25120K   25259.57755613  .00035005  00000+0  11886-2 0  9993
2 64265  53.1589 205.7953 0000937  67.8076 292.3024 15.30196236 17253
STARLINK-34315          
1 64266U 25120L   25259.56174523  .00077542  00000+0  26014-2 0  9999
2 64266  53.1590 205.6964 0001054  98.5325 261.5796 15.30220428 17194
STARLINK-34321          
1 64267U 25120M   25259.58799925  .00041347  00000+0  14017-2 0  9995
2 64267  53.1604 205.1485 0002369  91.2027 268.9245 15.30168646 17264
STARLINK-34319          
1 64268U 25120N   25259.14872711  .00015495  00000+0  53416-3 0  9995
2 64268  53.1568 207.3826 0001130  75.3289 284.7837 15.30201779 17195
STARLINK-34298          
1 64269U 25120P   25259.58337963  .00000791  00000+0  38847-4 0  9994
2 64269  53.1604 205.2067 0001617  89.1818 228.0492 15.30176291  5906
STARLINK-34219          
1 64270U 25120Q   25259.57016861  .00032977  00000+0  11208-2 0  9997
2 64270  53.1587 205.7459 0001267  79.2479 280.8664 15.30195101 17251
STARLINK-34342          
1 64271U 25120R   25259.55117233  .00025324  00000+0  86419-3 0  9996
2 64271  53.1568 205.6306 0001533  83.0863 277.0312 15.30201837 17204
STARLINK-34001          
1 64272U 25120S   25259.57439083  .00017354  00000+0  59681-3 0  9994
2 64272  53.1608 205.7771 0001695  79.1655 280.9537 15.30193719 17156
STARLINK-34334          
1 64273U 25120T   25259.25403573  .00005383  00000+0  19383-3 0  9999
2 64273  53.1600 206.6186 0001164  78.0330 282.0801 15.30186105 17213
STARLINK-34272          
1 64274U 25120U   25259.56805994  .00041358  00000+0  14010-2 0  9990
2 64274  53.1604 205.7367 0001503  82.3904 277.7268 15.30193861 17159
STARLINK-34293          
1 64275U 25120V   25259.57122840  .00025981  00000+0  88666-3 0  9997
2 64275  53.1569 205.7523 0002216  80.8426 279.2825 15.30183974 17192
STARLINK-34350          
1 64276U 25120W   25259.26774862  .00027442  00000+0  93568-3 0  9992
2 64276  53.1583 206.7023 0001138  99.9031 260.2099 15.30184690 17212
STARLINK-34264          
1 64277U 25120X   25259.55539430  .00022732  00000+0  77726-3 0  9990
2 64277  53.1558 205.6546 0001716  86.8399 273.2798 15.30200793 17197
STARLINK-34353          
1 64278U 25120Y   25259.56489428  .00022446  00000+0  76804-3 0  9991
2 64278  53.1557 205.7149 0001712  80.5119 279.6075 15.30184894 17252
