[{"OBJECT_NAME":"STARLINK-34276","OBJECT_ID":"2025-120H","EPOCH":"2025-09-16T06:30:07.262496","MEAN_MOTION":15.30183566,"ECCENTRICITY":0.00015264,"INCLINATION":53.1582,"RA_OF_ASC_NODE":206.7262,"ARG_OF_PERICENTER":100.5007,"MEAN_ANOMALY":259.6166,"EPHEMERIS_TYPE":0,"CLASSIFICATION_TYPE":"U","NORAD_CAT_ID":64263,"ELEMENT_SET_NO":999,"REV_AT_EPOCH":1721,"BSTAR":0.00077861801,"MEAN_MOTION_DOT":0.0002276,"MEAN_MOTION_DDOT":0},{"OBJECT_NAME":"STARLINK-34333","OBJECT_ID":"2025-120J","EPOCH":"2025-09-16T14:00:04.000032","MEAN_MOTION":15.30202295,"ECCENTRICITY":0.00017422,"INCLINATION":53.1605,"RA_OF_ASC_NODE":205.1268,"ARG_OF_PERICENTER":109.9636,"MEAN_ANOMALY":247.9207,"EPHEMERIS_TYPE":0,"CLASSIFICATION_TYPE":"U","NORAD_CAT_ID":64264,"ELEMENT_SET_NO":999,"REV_AT_EPOCH":590,"BSTAR":0.00011774209,"MEAN_MOTION_DOT":3.129e-5,"MEAN_MOTION_DDOT":0},{"OBJECT_NAME":"STARLINK-34240","OBJECT_ID":"2025-120K","EPOCH":"2025-09-16T13:51:40.849632","MEAN_MOTION":15.30196236,"ECCENTRICITY":9.37e-5,"INCLINATION":53.1589,"RA_OF_ASC_NODE":205.7953,"ARG_OF_PERICENTER":67.8076,"MEAN_ANOMALY":292.3024,"EPHEMERIS_TYPE":0,"CLASSIFICATION_TYPE":"U","NORAD_CAT_ID":64265,"ELEMENT_SET_NO":999,"REV_AT_EPOCH":1725,"BSTAR":0.0011885783,"MEAN_MOTION_DOT":0.00035005,"MEAN_MOTION_DDOT":0},{"OBJECT_NAME":"STARLINK-34315","OBJECT_ID":"2025-120L","EPOCH":"2025-09-16T13:28:54.787872","MEAN_MOTION":15.30220428,"ECCENTRICITY":0.00010545,"INCLINATION":53.159,"RA_OF_ASC_NODE":205.6964,"ARG_OF_PERICENTER":98.5325,"MEAN_ANOMALY":261.5796,"EPHEMERIS_TYPE":0,"CLASSIFICATION_TYPE":"U","NORAD_CAT_ID":64266,"ELEMENT_SET_NO":999,"REV_AT_EPOCH":1719,"BSTAR":0.0026013837,"MEAN_MOTION_DOT":0.00077542,"MEAN_MOTION_DDOT":0},{"OBJECT_NAME":"STARLINK-34321","OBJECT_ID":"2025-120M","EPOCH":"2025-09-16T14:06:43.135200","MEAN_MOTION":15.30168646,"ECCENTRICITY":0.00023696,"INCLINATION":53.1604,"RA_OF_ASC_NODE":205.1485,"ARG_OF_PERICENTER":91.2027,"MEAN_ANOMALY":268.9245,"EPHEMERIS_TYPE":0,"CLASSIFICATION_TYPE":"U","NORAD_CAT_ID":64267,"ELEMENT_SET_NO":999,"REV_AT_EPOCH":1726,"BSTAR":0.001401689,"MEAN_MOTION_DOT":0.00041347,"MEAN_MOTION_DDOT":0},{"OBJECT_NAME":"STARLINK-34319","OBJECT_ID":"2025-120N","EPOCH":"2025-09-16T03:34:10.022304","MEAN_MOTION":15.30201779,"ECCENTRICITY":0.00011301,"INCLINATION":53.1568,"RA_OF_ASC_NODE":207.3826,"ARG_OF_PERICENTER":75.3289,"MEAN_ANOMALY":284.7837,"EPHEMERIS_TYPE":0,"CLASSIFICATION_TYPE":"U","NORAD_CAT_ID":64268,"ELEMENT_SET_NO":999,"REV_AT_EPOCH":1719,"BSTAR":0.00053416359,"MEAN_MOTION_DOT":0.00015495,"MEAN_MOTION_DDOT":0},{"OBJECT_NAME":"STARLINK-34298","OBJECT_ID":"2025-120P","EPOCH":"2025-09-16T14:00:04.000032","MEAN_MOTION":15.30176291,"ECCENTRICITY":0.00016171,"INCLINATION":53.1604,"RA_OF_ASC_NODE":205.2067,"ARG_OF_PERICENTER":89.1818,"MEAN_ANOMALY":228.0492,"EPHEMERIS_TYPE":0,"CLASSIFICATION_TYPE":"U","NORAD_CAT_ID":64269,"ELEMENT_SET_NO":999,"REV_AT_EPOCH":590,"BSTAR":3.8847127e-5,"MEAN_MOTION_DOT":7.91e-6,"MEAN_MOTION_DDOT":0},{"OBJECT_NAME":"STARLINK-34219","OBJECT_ID":"2025-120Q","EPOCH":"2025-09-16T13:41:02.567904","MEAN_MOTION":15.30195101,"ECCENTRICITY":0.00012677,"INCLINATION":53.1587,"RA_OF_ASC_NODE":205.7459,"ARG_OF_PERICENTER":79.2479,"MEAN_ANOMALY":280.8664,"EPHEMERIS_TYPE":0,"CLASSIFICATION_TYPE":"U","NORAD_CAT_ID":64270,"ELEMENT_SET_NO":999,"REV_AT_EPOCH":1725,"BSTAR":0.0011207635,"MEAN_MOTION_DOT":0.00032977,"MEAN_MOTION_DDOT":0},{"OBJECT_NAME":"STARLINK-34342","OBJECT_ID":"2025-120R","EPOCH":"2025-09-16T13:13:41.289312","MEAN_MOTION":15.30201837,"ECCENTRICITY":0.00015336,"INCLINATION":53.1568,"RA_OF_ASC_NODE":205.6306,"ARG_OF_PERICENTER":83.0863,"MEAN_ANOMALY":277.0312,"EPHEMERIS_TYPE":0,"CLASSIFICATION_TYPE":"U","NORAD_CAT_ID":64271,"ELEMENT_SET_NO":999,"REV_AT_EPOCH":1720,"BSTAR":0.00086418756,"MEAN_MOTION_DOT":0.00025324,"MEAN_MOTION_DDOT":0},{"OBJECT_NAME":"STARLINK-34001","OBJECT_ID":"2025-120S","EPOCH":"2025-09-16T13:47:07.367712","MEAN_MOTION":15.30193719,"ECCENTRICITY":0.00016954,"INCLINATION":53.1608,"RA_OF_ASC_NODE":205.7771,"ARG_OF_PERICENTER":79.1655,"MEAN_ANOMALY":280.9537,"EPHEMERIS_TYPE":0,"CLASSIFICATION_TYPE":"U","NORAD_CAT_ID":64272,"ELEMENT_SET_NO":999,"REV_AT_EPOCH":1715,"BSTAR":0.0005968082,"MEAN_MOTION_DOT":0.00017354,"MEAN_MOTION_DDOT":0},{"OBJECT_NAME":"STARLINK-34334","OBJECT_ID":"2025-120T","EPOCH":"2025-09-16T06:05:48.687072","MEAN_MOTION":15.30186105,"ECCENTRICITY":0.00011649,"INCLINATION":53.16,"RA_OF_ASC_NODE":206.6186,"ARG_OF_PERICENTER":78.033,"MEAN_ANOMALY":282.0801,"EPHEMERIS_TYPE":0,"CLASSIFICATION_TYPE":"U","NORAD_CAT_ID":64273,"ELEMENT_SET_NO":999,"REV_AT_EPOCH":1721,"BSTAR":0.00019383262,"MEAN_MOTION_DOT":5.383e-5,"MEAN_MOTION_DDOT":0},{"OBJECT_NAME":"STARLINK-34272","OBJECT_ID":"2025-120U","EPOCH":"2025-09-16T13:38:00.378816","MEAN_MOTION":15.30193861,"ECCENTRICITY":0.00015036,"INCLINATION":53.1604,"RA_OF_ASC_NODE":205.7367,"ARG_OF_PERICENTER":82.3904,"MEAN_ANOMALY":277.7268,"EPHEMERIS_TYPE":0,"CLASSIFICATION_TYPE":"U","NORAD_CAT_ID":64274,"ELEMENT_SET_NO":999,"REV_AT_EPOCH":1715,"BSTAR":0.0014009991,"MEAN_MOTION_DOT":0.00041358,"MEAN_MOTION_DDOT":0},{"OBJECT_NAME":"STARLINK-34293","OBJECT_ID":"2025-120V","EPOCH":"2025-09-16T13:42:34.133760","MEAN_MOTION":15.30183974,"ECCENTRICITY":0.00022166,"INCLINATION":53.1569,"RA_OF_ASC_NODE":205.7523,"ARG_OF_PERICENTER":80.8426,"MEAN_ANOMALY":279.2825,"EPHEMERIS_TYPE":0,"CLASSIFICATION_TYPE":"U","NORAD_CAT_ID":64275,"ELEMENT_SET_NO":999,"REV_AT_EPOCH":1719,"BSTAR":0.00088666125,"MEAN_MOTION_DOT":0.00025981,"MEAN_MOTION_DDOT":0},{"OBJECT_NAME":"STARLINK-34350","OBJECT_ID":"2025-120W","EPOCH":"2025-09-16T06:25:33.480768","MEAN_MOTION":15.3018469,"ECCENTRICITY":0.00011381,"INCLINATION":53.1583,"RA_OF_ASC_NODE":206.7023,"ARG_OF_PERICENTER":99.9031,"MEAN_ANOMALY":260.2099,"EPHEMERIS_TYPE":0,"CLASSIFICATION_TYPE":"U","NORAD_CAT_ID":64276,"ELEMENT_SET_NO":999,"REV_AT_EPOCH":1721,"BSTAR":0.00093568495,"MEAN_MOTION_DOT":0.00027442,"MEAN_MOTION_DDOT":0},{"OBJECT_NAME":"STARLINK-34264","OBJECT_ID":"2025-120X","EPOCH":"2025-09-16T13:19:46.067520","MEAN_MOTION":15.30200793,"ECCENTRICITY":0.00017162,"INCLINATION":53.1558,"RA_OF_ASC_NODE":205.6546,"ARG_OF_PERICENTER":86.8399,"MEAN_ANOMALY":273.2798,"EPHEMERIS_TYPE":0,"CLASSIFICATION_TYPE":"U","NORAD_CAT_ID":64277,"ELEMENT_SET_NO":999,"REV_AT_EPOCH":1719,"BSTAR":0.00077725868,"MEAN_MOTION_DOT":0.00022732,"MEAN_MOTION_DDOT":0},{"OBJECT_NAME":"STARLINK-34353","OBJECT_ID":"2025-120Y","EPOCH":"2025-09-16T13:33:26.865792","MEAN_MOTION":15.30184894,"ECCENTRICITY":0.00017122,"INCLINATION":53.1557,"RA_OF_ASC_NODE":205.7149,"ARG_OF_PERICENTER":80.5119,"MEAN_ANOMALY":279.6075,"EPHEMERIS_TYPE":0,"CLASSIFICATION_TYPE":"U","NORAD_CAT_ID":64278,"ELEMENT_SET_NO":999,"REV_AT_EPOCH":1725,"BSTAR":0.00076804425,"MEAN_MOTION_DOT":0.00022446,"MEAN_MOTION_DDOT":0}]
